[{"OBJECT_NAME":"STARLINK-31268","OBJECT_ID":"2024-049Q","EPOCH":"2026-03-09T22:00:01.999584","MEAN_MOTION":15.80181847,"ECCENTRICITY":0.00239404,"INCLINATION":42.9822,"RA_OF_ASC_NODE":121.2463,"ARG_OF_PERICENTER":68.2784,"MEAN_ANOMALY":176.6479,"EPHEMERIS_TYPE":0,"CLASSIFICATION_TYPE":"U","NORAD_CAT_ID":59245,"ELEMENT_SET_NO":999,"REV_AT_EPOCH":593,"BSTAR":0.00074266557,"MEAN_MOTION_DOT":0.00148493,"MEAN_MOTION_DDOT":0},{"OBJECT_NAME":"STARLINK-36729","OBJECT_ID":"2026-036B","EPOCH":"2026-03-09T21:36:44.000928","MEAN_MOTION":15.82092344,"ECCENTRICITY":0.00021298,"INCLINATION":42.9989,"RA_OF_ASC_NODE":248.5066,"ARG_OF_PERICENTER":266.7566,"MEAN_ANOMALY":93.3062,"EPHEMERIS_TYPE":0,"CLASSIFICATION_TYPE":"U","NORAD_CAT_ID":67905,"ELEMENT_SET_NO":999,"REV_AT_EPOCH":370,"BSTAR":0.0011402138,"MEAN_MOTION_DOT":0.00247429,"MEAN_MOTION_DDOT":0}]
